ONEWEB-0412             
1 50489U 21132W   25216.47179174  .00000032  00000+0  47189-4 0  9998
2 50489  87.9122  38.3668 0002189  91.1200 269.0182 13.18684400179914
ONEWEB-0413             
1 50490U 21132X   25216.93199728  .00000040  00000+0  69316-4 0  9993
2 50490  87.9127  38.2905 0002175  86.3180 273.8201 13.18687761179910
ONEWEB-0414             
1 50491U 21132Y   25216.76539895  .00000017  00000+0  10830-4 0  9999
2 50491  87.9126  38.2843 0001993  94.5188 265.6172 13.18684468179925
ONEWEB-0417             
1 50492U 21132Z   25216.92540881  .00000060  00000+0  11992-3 0  9992
2 50492  87.9126  38.2837 0001709  96.6819 263.4508 13.18685221179925
ONEWEB-0418             
1 50493U 21132AA  25216.93515324  .00000056  00000+0  10959-3 0  9995
2 50493  87.9127  38.2680 0001665 101.6690 258.4629 13.18686867179989
ONEWEB-0419             
1 50494U 21132AB  25216.80169402 -.00000097  00000+0 -27924-3 0  9991
2 50494  87.9125  38.2970 0001454  92.4585 267.6713 13.18686589179882
ONEWEB-0420             
1 50495U 21132AC  25216.46353978  .00000071  00000+0  14656-3 0  9995
2 50495  87.9123  38.3741 0002034  81.8154 278.3209 13.18684707179831
ONEWEB-0421             
1 50496U 21132AD  25216.45694569  .00000043  00000+0  77378-4 0  9999
2 50496  87.9128  38.3688 0002062  94.8647 265.2721 13.18684845179870
ONEWEB-0424             
1 50497U 21132AE  25216.49323253  .00000070  00000+0  14529-3 0  9991
2 50497  87.9130  38.3552 0001359  81.7594 278.3692 13.18686236179900
ONEWEB-0426             
1 50498U 21132AF  25216.75714805  .00000093  00000+0  20285-3 0  9999
2 50498  87.9122  38.2962 0002208 109.5609 250.5762 13.18684824179884
ONEWEB-0427             
1 50499U 21132AG  25216.79508798  .00000037  00000+0  60569-4 0  9994
2 50499  87.9124  38.2782 0001690  96.2908 263.8417 13.18686776179911
ONEWEB-0429             
1 50500U 21132AH  25216.78190047  .00000039  00000+0  67386-4 0  9996
2 50500  87.9127  38.3097 0001865  85.7195 274.4150 13.18685877179881
ONEWEB-0430             
1 50501U 21132AJ  25216.77034787  .00000078  00000+0  16620-3 0  9991
2 50501  87.9127  38.3060 0001639  82.1713 277.9605 13.18685126179923
ONEWEB-0432             
1 50502U 21132AK  25216.80191851  .00000079  00000+0  16775-3 0  9994
2 50502  87.9121  38.2811 0000989 108.1340 251.9900 13.18688281179883
ONEWEB-0440             
1 50503U 21132AL  25216.94190759  .00000070  00000+0  14393-3 0  9991
2 50503  87.9129  38.2608 0002226  88.8342 271.3046 13.18686180179892
ONEWEB-0450             
1 50504U 21132AM  25216.78369960  .00000027  00000+0  35671-4 0  9991
2 50504  87.9127  38.3186 0001858  80.7735 279.3608 13.18685298179903
ONEWEB-0410             
1 51622U 22012A   25216.94313326  .00000079  00000+0  17048-3 0  9998
2 51622  87.9039  68.7789 0001958 131.0871 229.0430 13.17648457172054
