[{"OBJECT_NAME":"ONEWEB-0412","OBJECT_ID":"2021-132W","EPOCH":"2025-08-04T11:19:22.806336","MEAN_MOTION":13.186844,"ECCENTRICITY":0.0002189,"INCLINATION":87.9122,"RA_OF_ASC_NODE":38.3668,"ARG_OF_PERICENTER":91.12,"MEAN_ANOMALY":269.0182,"EPHEMERIS_TYPE":0,"CLASSIFICATION_TYPE":"U","NORAD_CAT_ID":50489,"ELEMENT_SET_NO":999,"REV_AT_EPOCH":17991,"BSTAR":4.7189e-5,"MEAN_MOTION_DOT":3.2e-7,"MEAN_MOTION_DDOT":0},{"OBJECT_NAME":"ONEWEB-0413","OBJECT_ID":"2021-132X","EPOCH":"2025-08-04T22:22:04.564992","MEAN_MOTION":13.18687761,"ECCENTRICITY":0.0002175,"INCLINATION":87.9127,"RA_OF_ASC_NODE":38.2905,"ARG_OF_PERICENTER":86.318,"MEAN_ANOMALY":273.8201,"EPHEMERIS_TYPE":0,"CLASSIFICATION_TYPE":"U","NORAD_CAT_ID":50490,"ELEMENT_SET_NO":999,"REV_AT_EPOCH":17991,"BSTAR":6.9316e-5,"MEAN_MOTION_DOT":4.0e-7,"MEAN_MOTION_DDOT":0},{"OBJECT_NAME":"ONEWEB-0414","OBJECT_ID":"2021-132Y","EPOCH":"2025-08-04T18:22:10.469280","MEAN_MOTION":13.18684468,"ECCENTRICITY":0.0001993,"INCLINATION":87.9126,"RA_OF_ASC_NODE":38.2843,"ARG_OF_PERICENTER":94.5188,"MEAN_ANOMALY":265.6172,"EPHEMERIS_TYPE":0,"CLASSIFICATION_TYPE":"U","NORAD_CAT_ID":50491,"ELEMENT_SET_NO":999,"REV_AT_EPOCH":17992,"BSTAR":1.083e-5,"MEAN_MOTION_DOT":1.7e-7,"MEAN_MOTION_DDOT":0},{"OBJECT_NAME":"ONEWEB-0417","OBJECT_ID":"2021-132Z","EPOCH":"2025-08-04T22:12:35.321184","MEAN_MOTION":13.18685221,"ECCENTRICITY":0.0001709,"INCLINATION":87.9126,"RA_OF_ASC_NODE":38.2837,"ARG_OF_PERICENTER":96.6819,"MEAN_ANOMALY":263.4508,"EPHEMERIS_TYPE":0,"CLASSIFICATION_TYPE":"U","NORAD_CAT_ID":50492,"ELEMENT_SET_NO":999,"REV_AT_EPOCH":17992,"BSTAR":0.00011992,"MEAN_MOTION_DOT":6.0e-7,"MEAN_MOTION_DDOT":0},{"OBJECT_NAME":"ONEWEB-0418","OBJECT_ID":"2021-132AA","EPOCH":"2025-08-04T22:26:37.239936","MEAN_MOTION":13.18686867,"ECCENTRICITY":0.0001665,"INCLINATION":87.9127,"RA_OF_ASC_NODE":38.268,"ARG_OF_PERICENTER":101.669,"MEAN_ANOMALY":258.4629,"EPHEMERIS_TYPE":0,"CLASSIFICATION_TYPE":"U","NORAD_CAT_ID":50493,"ELEMENT_SET_NO":999,"REV_AT_EPOCH":17998,"BSTAR":0.00010959,"MEAN_MOTION_DOT":5.6e-7,"MEAN_MOTION_DDOT":0},{"OBJECT_NAME":"ONEWEB-0419","OBJECT_ID":"2021-132AB","EPOCH":"2025-08-04T19:14:26.363328","MEAN_MOTION":13.18686589,"ECCENTRICITY":0.0001454,"INCLINATION":87.9125,"RA_OF_ASC_NODE":38.297,"ARG_OF_PERICENTER":92.4585,"MEAN_ANOMALY":267.6713,"EPHEMERIS_TYPE":0,"CLASSIFICATION_TYPE":"U","NORAD_CAT_ID":50494,"ELEMENT_SET_NO":999,"REV_AT_EPOCH":17988,"BSTAR":-0.00027924,"MEAN_MOTION_DOT":-9.7e-7,"MEAN_MOTION_DDOT":0},{"OBJECT_NAME":"ONEWEB-0420","OBJECT_ID":"2021-132AC","EPOCH":"2025-08-04T11:07:29.836992","MEAN_MOTION":13.18684707,"ECCENTRICITY":0.0002034,"INCLINATION":87.9123,"RA_OF_ASC_NODE":38.3741,"ARG_OF_PERICENTER":81.8154,"MEAN_ANOMALY":278.3209,"EPHEMERIS_TYPE":0,"CLASSIFICATION_TYPE":"U","NORAD_CAT_ID":50495,"ELEMENT_SET_NO":999,"REV_AT_EPOCH":17983,"BSTAR":0.00014656,"MEAN_MOTION_DOT":7.1e-7,"MEAN_MOTION_DDOT":0},{"OBJECT_NAME":"ONEWEB-0421","OBJECT_ID":"2021-132AD","EPOCH":"2025-08-04T10:58:00.107616","MEAN_MOTION":13.18684845,"ECCENTRICITY":0.0002062,"INCLINATION":87.9128,"RA_OF_ASC_NODE":38.3688,"ARG_OF_PERICENTER":94.8647,"MEAN_ANOMALY":265.2721,"EPHEMERIS_TYPE":0,"CLASSIFICATION_TYPE":"U","NORAD_CAT_ID":50496,"ELEMENT_SET_NO":999,"REV_AT_EPOCH":17987,"BSTAR":7.7378e-5,"MEAN_MOTION_DOT":4.3e-7,"MEAN_MOTION_DDOT":0},{"OBJECT_NAME":"ONEWEB-0424","OBJECT_ID":"2021-132AE","EPOCH":"2025-08-04T11:50:15.290592","MEAN_MOTION":13.18686236,"ECCENTRICITY":0.0001359,"INCLINATION":87.913,"RA_OF_ASC_NODE":38.3552,"ARG_OF_PERICENTER":81.7594,"MEAN_ANOMALY":278.3692,"EPHEMERIS_TYPE":0,"CLASSIFICATION_TYPE":"U","NORAD_CAT_ID":50497,"ELEMENT_SET_NO":999,"REV_AT_EPOCH":17990,"BSTAR":0.00014529,"MEAN_MOTION_DOT":7.0e-7,"MEAN_MOTION_DDOT":0},{"OBJECT_NAME":"ONEWEB-0426","OBJECT_ID":"2021-132AF","EPOCH":"2025-08-04T18:10:17.591520","MEAN_MOTION":13.18684824,"ECCENTRICITY":0.0002208,"INCLINATION":87.9122,"RA_OF_ASC_NODE":38.2962,"ARG_OF_PERICENTER":109.5609,"MEAN_ANOMALY":250.5762,"EPHEMERIS_TYPE":0,"CLASSIFICATION_TYPE":"U","NORAD_CAT_ID":50498,"ELEMENT_SET_NO":999,"REV_AT_EPOCH":17988,"BSTAR":0.00020285,"MEAN_MOTION_DOT":9.3e-7,"MEAN_MOTION_DDOT":0},{"OBJECT_NAME":"ONEWEB-0427","OBJECT_ID":"2021-132AG","EPOCH":"2025-08-04T19:04:55.601472","MEAN_MOTION":13.18686776,"ECCENTRICITY":0.000169,"INCLINATION":87.9124,"RA_OF_ASC_NODE":38.2782,"ARG_OF_PERICENTER":96.2908,"MEAN_ANOMALY":263.8417,"EPHEMERIS_TYPE":0,"CLASSIFICATION_TYPE":"U","NORAD_CAT_ID":50499,"ELEMENT_SET_NO":999,"REV_AT_EPOCH":17991,"BSTAR":6.0569e-5,"MEAN_MOTION_DOT":3.7e-7,"MEAN_MOTION_DDOT":0},{"OBJECT_NAME":"ONEWEB-0429","OBJECT_ID":"2021-132AH","EPOCH":"2025-08-04T18:45:56.200608","MEAN_MOTION":13.18685877,"ECCENTRICITY":0.0001865,"INCLINATION":87.9127,"RA_OF_ASC_NODE":38.3097,"ARG_OF_PERICENTER":85.7195,"MEAN_ANOMALY":274.415,"EPHEMERIS_TYPE":0,"CLASSIFICATION_TYPE":"U","NORAD_CAT_ID":50500,"ELEMENT_SET_NO":999,"REV_AT_EPOCH":17988,"BSTAR":6.7386e-5,"MEAN_MOTION_DOT":3.9e-7,"MEAN_MOTION_DDOT":0},{"OBJECT_NAME":"ONEWEB-0430","OBJECT_ID":"2021-132AJ","EPOCH":"2025-08-04T18:29:18.055968","MEAN_MOTION":13.18685126,"ECCENTRICITY":0.0001639,"INCLINATION":87.9127,"RA_OF_ASC_NODE":38.306,"ARG_OF_PERICENTER":82.1713,"MEAN_ANOMALY":277.9605,"EPHEMERIS_TYPE":0,"CLASSIFICATION_TYPE":"U","NORAD_CAT_ID":50501,"ELEMENT_SET_NO":999,"REV_AT_EPOCH":17992,"BSTAR":0.0001662,"MEAN_MOTION_DOT":7.8e-7,"MEAN_MOTION_DDOT":0},{"OBJECT_NAME":"ONEWEB-0432","OBJECT_ID":"2021-132AK","EPOCH":"2025-08-04T19:14:45.759264","MEAN_MOTION":13.18688281,"ECCENTRICITY":9.89e-5,"INCLINATION":87.9121,"RA_OF_ASC_NODE":38.2811,"ARG_OF_PERICENTER":108.134,"MEAN_ANOMALY":251.99,"EPHEMERIS_TYPE":0,"CLASSIFICATION_TYPE":"U","NORAD_CAT_ID":50502,"ELEMENT_SET_NO":999,"REV_AT_EPOCH":17988,"BSTAR":0.00016775,"MEAN_MOTION_DOT":7.9e-7,"MEAN_MOTION_DDOT":0},{"OBJECT_NAME":"ONEWEB-0440","OBJECT_ID":"2021-132AL","EPOCH":"2025-08-04T22:36:20.815776","MEAN_MOTION":13.1868618,"ECCENTRICITY":0.0002226,"INCLINATION":87.9129,"RA_OF_ASC_NODE":38.2608,"ARG_OF_PERICENTER":88.8342,"MEAN_ANOMALY":271.3046,"EPHEMERIS_TYPE":0,"CLASSIFICATION_TYPE":"U","NORAD_CAT_ID":50503,"ELEMENT_SET_NO":999,"REV_AT_EPOCH":17989,"BSTAR":0.00014393,"MEAN_MOTION_DOT":7.0e-7,"MEAN_MOTION_DDOT":0},{"OBJECT_NAME":"ONEWEB-0450","OBJECT_ID":"2021-132AM","EPOCH":"2025-08-04T18:48:31.645440","MEAN_MOTION":13.18685298,"ECCENTRICITY":0.0001858,"INCLINATION":87.9127,"RA_OF_ASC_NODE":38.3186,"ARG_OF_PERICENTER":80.7735,"MEAN_ANOMALY":279.3608,"EPHEMERIS_TYPE":0,"CLASSIFICATION_TYPE":"U","NORAD_CAT_ID":50504,"ELEMENT_SET_NO":999,"REV_AT_EPOCH":17990,"BSTAR":3.5671e-5,"MEAN_MOTION_DOT":2.7e-7,"MEAN_MOTION_DDOT":0},{"OBJECT_NAME":"ONEWEB-0410","OBJECT_ID":"2022-012A","EPOCH":"2025-08-04T22:38:06.713664","MEAN_MOTION":13.17648457,"ECCENTRICITY":0.0001958,"INCLINATION":87.9039,"RA_OF_ASC_NODE":68.7789,"ARG_OF_PERICENTER":131.0871,"MEAN_ANOMALY":229.043,"EPHEMERIS_TYPE":0,"CLASSIFICATION_TYPE":"U","NORAD_CAT_ID":51622,"ELEMENT_SET_NO":999,"REV_AT_EPOCH":17205,"BSTAR":0.00017048,"MEAN_MOTION_DOT":7.9e-7,"MEAN_MOTION_DDOT":0}]
